[{"OBJECT_NAME":"STARLINK-5614","OBJECT_ID":"2023-028R","EPOCH":"2026-03-09T21:10:35.389056","MEAN_MOTION":14.98330958,"ECCENTRICITY":0.00025082,"INCLINATION":69.9993,"RA_OF_ASC_NODE":243.7817,"ARG_OF_PERICENTER":270.1984,"MEAN_ANOMALY":89.8888,"EPHEMERIS_TYPE":0,"CLASSIFICATION_TYPE":"U","NORAD_CAT_ID":55756,"ELEMENT_SET_NO":999,"REV_AT_EPOCH":16607,"BSTAR":6.195287e-6,"MEAN_MOTION_DOT":-1.9e-7,"MEAN_MOTION_DDOT":0},{"OBJECT_NAME":"FENGYUN 1C DEB","OBJECT_ID":"1999-025UY","EPOCH":"2026-03-09T17:57:35.667936","MEAN_MOTION":14.7972234,"ECCENTRICITY":0.00936968,"INCLINATION":98.7622,"RA_OF_ASC_NODE":152.739,"ARG_OF_PERICENTER":348.8437,"MEAN_ANOMALY":135.9619,"EPHEMERIS_TYPE":0,"CLASSIFICATION_TYPE":"U","NORAD_CAT_ID":30191,"ELEMENT_SET_NO":999,"REV_AT_EPOCH":1561,"BSTAR":0.00058698709,"MEAN_MOTION_DOT":4.686e-5,"MEAN_MOTION_DDOT":0}]
